NORAD_CAT_ID,OBJECT_NAME,OBJECT_TYPE,EPOCH,MEAN_MOTION,ECCENTRICITY,INCLINATION,RA_OF_ASC_NODE,ARG_OF_PERICENTER,MEAN_ANOMALY,BSTAR,MEAN_MOTION_DOT,MEAN_MOTION_DDOT,TLE_LINE0,TLE_LINE1,TLE_LINE2,SEMIMAJOR_AXIS,PERIOD,APOGEE,PERIGEE,DECAYED
54770.0,STARLINK-5448,PAYLOAD,2023-06-02 13:54:14,15.08834713,0.0001044,53.2166,248.3572,97.5826,262.5284,-1.4456e-05,-5.18e-06,0.0,0 STARLINK-5448,1 54770U 22175N   23153.57934017 -.00000518  00000-0 -14456-4 0  9990,2 54770  53.2166 248.3572 0001044  97.5826 262.5284 15.08834713 27485,6917.897,95.438,540.484,539.039,0.0
54770.0,STARLINK-5448,PAYLOAD,2023-06-03 13:45:02,15.0883862,0.0001092,53.2164,243.8965,74.9116,285.1997,2.5137e-05,1.12e-06,0.0,0 STARLINK-5448,1 54770U 22175N   23154.57294000  .00000112  00000-0  25137-4 0  9998,2 54770  53.2164 243.8965 0001092  74.9116 285.1997 15.08838620 27633,6917.885,95.438,540.505,538.994,0.0
54770.0,STARLINK-5448,PAYLOAD,2023-06-04 12:00:25,15.08841725,9.63e-05,53.2157,239.7333,72.5457,287.564,0.00012077,1.635e-05,0.0,0 STARLINK-5448,1 54770U 22175N   23155.50029618  .00001635  00000-0  12077-3 0  9992,2 54770  53.2157 239.7333 0000963  72.5457 287.5640 15.08841725 27772,6917.875,95.437,540.406,539.074,0.0
54770.0,STARLINK-5448,PAYLOAD,2023-06-04 15:11:11,15.08845041,9.55e-05,53.2157,239.1383,72.876,287.2336,0.00014589,2.035e-05,0.0,0 STARLINK-5448,1 54770U 22175N   23155.63277326  .00002035  00000-0  14589-3 0  9992,2 54770  53.2157 239.1383 0000955  72.8760 287.2336 15.08845041 25639,6917.865,95.437,540.391,539.069,0.0
54770.0,STARLINK-5448,PAYLOAD,2023-06-05 05:29:40,15.08841197,9.77e-05,53.215,236.4618,72.4065,287.7034,0.00010762,1.425e-05,0.0,0 STARLINK-5448,1 54770U 22175N   23156.22893617  .00001425  00000-0  10762-3 0  9996,2 54770  53.2150 236.4618 0000977  72.4065 287.7034 15.08841197 25729,6917.877,95.437,540.418,539.066,0.0
54770.0,STARLINK-5448,PAYLOAD,2023-06-05 11:51:12,15.08847569,8.22e-05,53.215,235.271,87.8826,272.2261,0.00011987,1.621e-05,0.0,0 STARLINK-5448,1 54770U 22175N   23156.49389100  .00001621  00000-0  11987-3 0  9990,2 54770  53.2150 235.2710 0000822  87.8826 272.2261 15.08847569 27927,6917.857,95.437,540.291,539.154,0.0
54770.0,STARLINK-5448,PAYLOAD,2023-06-06 08:31:13,15.08839552,8.02e-05,53.215,231.4052,85.6925,274.4159,-3.7569e-05,-8.86e-06,0.0,0 STARLINK-5448,1 54770U 22175N   23157.35501860 -.00000886  00000-0 -37569-4 0  9994,2 54770  53.2150 231.4052 0000802  85.6925 274.4159 15.08839552 25895,6917.882,95.438,540.302,539.192,0.0
54770.0,STARLINK-5448,PAYLOAD,2023-06-06 11:41:59,15.08842009,8.4e-05,53.2149,230.8108,79.5935,280.5152,-7.8895e-06,-4.13e-06,0.0,0 STARLINK-5448,1 54770U 22175N   23157.48749602 -.00000413  00000-0 -78895-5 0  9990,2 54770  53.2149 230.8108 0000840  79.5935 280.5152 15.08842009 28078,6917.874,95.437,540.32,539.158,0.0
54770.0,STARLINK-5448,PAYLOAD,2023-06-06 14:52:45,15.08844367,8.14e-05,53.215,230.2157,84.2891,275.8194,2.0381e-06,-2.55e-06,0.0,0 STARLINK-5448,1 54770U 22175N   23157.61997360 -.00000255  00000-0  20381-5 0  9991,2 54770  53.2150 230.2157 0000814  84.2891 275.8194 15.08844367 28097,6917.867,95.437,540.295,539.169,0.0
54770.0,STARLINK-5448,PAYLOAD,2023-06-07 08:22:00,15.08837241,8.59e-05,53.2159,226.9461,80.7331,279.3758,5.4433e-06,-2.01e-06,0.0,0 STARLINK-5448,1 54770U 22175N   23158.34861887 -.00000201  00000-0  54433-5 0  9992,2 54770  53.2159 226.9461 0000859  80.7331 279.3758 15.08837241 28206,6917.889,95.438,540.348,539.16,0.0
54770.0,STARLINK-5448,PAYLOAD,2023-06-07 14:43:32,15.08843222,8.96e-05,53.2157,225.7561,82.5544,277.555,2.7889e-05,1.56e-06,0.0,0 STARLINK-5448,1 54770U 22175N   23158.61357427  .00000156  00000-0  27889-4 0  9994,2 54770  53.2157 225.7561 0000896  82.5544 277.5550 15.08843222 26089,6917.871,95.437,540.355,539.116,0.0
54770.0,STARLINK-5448,PAYLOAD,2023-06-07 21:05:05,15.08841265,9.34e-05,53.2153,224.5664,79.1902,280.9195,-2.8455e-05,-7.41e-06,0.0,0 STARLINK-5448,1 54770U 22175N   23158.87853744 -.00000741  00000-0 -28455-4 0  9997,2 54770  53.2153 224.5664 0000934  79.1902 280.9195 15.08841265 28281,6917.877,95.437,540.388,539.095,0.0
54770.0,STARLINK-5448,PAYLOAD,2023-06-08 03:26:38,15.08831386,0.0001066,53.2147,223.3764,72.5982,287.5127,2.2484e-05,7e-07,0.0,0 STARLINK-5448,1 54770U 22175N   23159.14350376  .00000070  00000-0  22484-4 0  9990,2 54770  53.2147 223.3764 0001066  72.5982 287.5127 15.08831386 26160,6917.907,95.438,540.509,539.034,0.0
54770.0,STARLINK-5448,PAYLOAD,2023-06-08 09:48:11,15.08834543,0.0001013,53.2152,222.1877,77.8302,282.2804,4.6602e-05,4.54e-06,0.0,0 STARLINK-5448,1 54770U 22175N   23159.40846194  .00000454  00000-0  46602-4 0  9991,2 54770  53.2152 222.1877 0001013  77.8302 282.2804 15.08834543 28360,6917.897,95.438,540.463,539.061,0.0
54770.0,STARLINK-5448,PAYLOAD,2023-06-09 03:17:25,15.08835358,9.71e-05,53.215,218.9167,80.961,279.1492,6.8961e-05,8.1e-06,0.0,0 STARLINK-5448,1 54770U 22175N   23160.13710231  .00000810  00000-0  68961-4 0  9993,2 54770  53.2150 218.9167 0000971  80.9610 279.1492 15.08835358 26318,6917.895,95.438,540.431,539.088,0.0
54770.0,STARLINK-5448,PAYLOAD,2023-06-09 12:49:44,15.0884113,0.0001051,53.2154,217.1325,82.0685,278.0426,4.9518e-05,5e-06,0.0,0 STARLINK-5448,1 54770U 22175N   23160.53454030  .00000500  00000-0  49518-4 0  9992,2 54770  53.2154 217.1325 0001051  82.0685 278.0426 15.08841130 28530,6917.877,95.437,540.469,539.015,0.0
54770.0,STARLINK-5448,PAYLOAD,2023-06-09 20:46:40,15.0883334,0.0001003,53.2153,215.6459,89.2245,270.8862,6.8212e-05,7.98e-06,0.0,0 STARLINK-5448,1 54770U 22175N   23160.86574465  .00000798  00000-0  68212-4 0  9994,2 54770  53.2153 215.6459 0001003  89.2245 270.8862 15.08833340 28581,6917.901,95.438,540.46,539.072,0.0
54770.0,STARLINK-5448,PAYLOAD,2023-06-10 06:18:59,15.08835718,0.0001036,53.2154,213.8617,89.7709,270.3402,5.1074e-05,5.25e-06,0.0,0 STARLINK-5448,1 54770U 22175N   23161.26318516  .00000525  00000-0  51074-4 0  9998,2 54770  53.2154 213.8617 0001036  89.7709 270.3402 15.08835718 26487,6917.893,95.438,540.475,539.042,0.0
54770.0,STARLINK-5448,PAYLOAD,2023-06-10 12:40:31,15.08838676,0.0001032,53.2154,212.6721,88.7835,271.3276,5.1651e-05,5.34e-06,0.0,0 STARLINK-5448,1 54770U 22175N   23161.52814384  .00000534  00000-0  51651-4 0  9992,2 54770  53.2154 212.6721 0001032  88.7835 271.3276 15.08838676 28685,6917.884,95.438,540.463,539.036,0.0
54770.0,STARLINK-5448,PAYLOAD,2023-06-10 20:37:27,15.08835718,9.49e-05,53.2147,211.184,83.2817,276.8283,2.1917e-05,6.1e-07,0.0,0 STARLINK-5448,1 54770U 22175N   23161.85934687  .00000061  00000-0  21917-4 0  9994,2 54770  53.2147 211.1840 0000949  83.2817 276.8283 15.08835718 28737,6917.893,95.438,540.415,539.102,0.0
54770.0,STARLINK-5448,PAYLOAD,2023-06-11 09:20:32,15.08834766,0.0001012,53.2147,208.8052,85.6591,274.4517,0.00011654,1.567e-05,0.0,0 STARLINK-5448,1 54770U 22175N   23162.38926644  .00001567  00000-0  11654-3 0  9995,2 54770  53.2147 208.8052 0001012  85.6591 274.4517 15.08834766 26657,6917.896,95.438,540.461,539.061,0.0
54770.0,STARLINK-5448,PAYLOAD,2023-06-11 12:31:18,15.08840359,0.0001017,53.2147,208.2104,83.8652,276.2456,3.5208e-05,2.73e-06,0.0,0 STARLINK-5448,1 54770U 22175N   23162.52174480  .00000273  00000-0  35208-4 0  9999,2 54770  53.2147 208.2104 0001017  83.8652 276.2456 15.08840359 28831,6917.879,95.438,540.448,539.041,0.0
54770.0,STARLINK-5448,PAYLOAD,2023-06-11 20:28:14,15.08840068,9.93e-05,53.2148,206.7237,83.0061,277.1044,5.1307e-05,5.29e-06,0.0,0 STARLINK-5448,1 54770U 22175N   23162.85294441  .00000529  00000-0  51307-4 0  9997,2 54770  53.2148 206.7237 0000993  83.0061 277.1044 15.08840068 28885,6917.88,95.438,540.432,539.058,0.0
54770.0,STARLINK-5448,PAYLOAD,2023-06-12 09:11:19,15.08842121,9.76e-05,53.2146,204.3446,81.5987,278.5115,8.6211e-05,1.085e-05,0.0,0 STARLINK-5448,1 54770U 22175N   23163.38286189  .00001085  00000-0  86211-4 0  9996,2 54770  53.2146 204.3446 0000976  81.5987 278.5115 15.08842121 28965,6917.874,95.437,540.414,539.064,0.0
54770.0,STARLINK-5448,PAYLOAD,2023-06-12 20:19:01,15.08840886,9.61e-05,53.2148,202.2633,79.2944,280.8156,5.9017e-05,6.52e-06,0.0,0 STARLINK-5448,1 54770U 22175N   23163.84654310  .00000652  00000-0  59017-4 0  9995,2 54770  53.2148 202.2633 0000961  79.2944 280.8156 15.08840886 26878,6917.878,95.437,540.407,539.078,0.0
54770.0,STARLINK-5448,PAYLOAD,2023-06-13 02:40:34,15.08835627,0.0001005,53.2147,201.0744,78.0101,282.1003,3.2334e-05,2.27e-06,0.0,0 STARLINK-5448,1 54770U 22175N   23164.11150773  .00000227  00000-0  32334-4 0  9991,2 54770  53.2147 201.0744 0001005  78.0101 282.1003 15.08835627 26917,6917.894,95.438,540.454,539.064,0.0
54770.0,STARLINK-5448,PAYLOAD,2023-06-13 05:51:20,15.08835069,9.95e-05,53.2146,200.4795,78.8571,281.2533,2.5912e-05,1.25e-06,0.0,0 STARLINK-5448,1 54770U 22175N   23164.24398825  .00000125  00000-0  25912-4 0  9998,2 54770  53.2146 200.4795 0000995  78.8571 281.2533 15.08835069 29091,6917.895,95.438,540.449,539.072,0.0
54770.0,STARLINK-5448,PAYLOAD,2023-06-14 02:31:21,15.088341,9.85e-05,53.2146,196.6137,80.3932,279.7171,6.7227e-05,7.82e-06,0.0,0 STARLINK-5448,1 54770U 22175N   23165.10510787  .00000782  00000-0  67227-4 0  9991,2 54770  53.2146 196.6137 0000985  80.3932 279.7171 15.08834100 29225,6917.898,95.438,540.445,539.082,0.0
54770.0,STARLINK-5448,PAYLOAD,2023-06-14 18:25:12,15.08840445,9.57e-05,53.2151,193.639,86.5472,273.563,-2.2102e-05,-6.39e-06,0.0,0 STARLINK-5448,1 54770U 22175N   23165.76750663 -.00000639  00000-0 -22102-4 0  9998,2 54770  53.2151 193.6390 0000957  86.5472 273.5630 15.08840445 27167,6917.879,95.438,540.406,539.082,0.0
54770.0,STARLINK-5448,PAYLOAD,2023-06-15 08:43:41,15.08832407,0.0001002,53.2149,190.963,92.3498,267.7609,2.2901e-05,7.7e-07,0.0,0 STARLINK-5448,1 54770U 22175N   23166.36367233  .00000077  00000-0  22901-4 0  9993,2 54770  53.2149 190.9630 0001002  92.3498 267.7609 15.08832407 27256,6917.904,95.438,540.462,539.075,0.0
